STARLINK-36947
1 68033U 26040U   26090.83335647 -.01882230  00000+0 -17812-1 0  9993
2 68033  97.2859  40.3931 0001483 104.7735 202.0900 15.70332724  5995
